[{"OBJECT_NAME":"STARLINK-31770","OBJECT_ID":"2024-080A","EPOCH":"2026-03-09T21:55:59.602656","MEAN_MOTION":15.27574324,"ECCENTRICITY":0.00013087,"INCLINATION":43.0045,"RA_OF_ASC_NODE":36.9282,"ARG_OF_PERICENTER":290.5705,"MEAN_ANOMALY":69.5007,"EPHEMERIS_TYPE":0,"CLASSIFICATION_TYPE":"U","NORAD_CAT_ID":59601,"ELEMENT_SET_NO":999,"REV_AT_EPOCH":10577,"BSTAR":5.6032741e-5,"MEAN_MOTION_DOT":1.28e-5,"MEAN_MOTION_DDOT":0},{"OBJECT_NAME":"BREEZE-KM R\/B","OBJECT_ID":"2016-011B","EPOCH":"2026-03-09T13:46:31.765728","MEAN_MOTION":15.28220455,"ECCENTRICITY":0.0143188,"INCLINATION":98.6722,"RA_OF_ASC_NODE":284.67,"ARG_OF_PERICENTER":63.2473,"MEAN_ANOMALY":298.3333,"EPHEMERIS_TYPE":0,"CLASSIFICATION_TYPE":"U","NORAD_CAT_ID":41336,"ELEMENT_SET_NO":999,"REV_AT_EPOCH":55224,"BSTAR":0.00023628,"MEAN_MOTION_DOT":8.734e-5,"MEAN_MOTION_DDOT":0}]
